STARLINK-35860          
1 66881U 25283D   25350.28739374 -.00848216  00000+0 -37315-2 0  9998
2 66881  53.1549  55.9623 0001008 323.7744  36.3213 15.85857166  3011
STARLINK-35912          
1 66882U 25283E   25350.28695006 -.00422323  00000+0 -17763-2 0  9994
2 66882  53.1553  55.9606 0001998 323.9776  36.1114 15.85769344  3011
STARLINK-35947          
1 66883U 25283F   25350.28650761 -.02460974  00000+0 -11207-1 0  9996
2 66883  53.1553  55.9566 0014355 313.3277  46.6551 15.86495118  3036
STARLINK-36057          
1 66884U 25283G   25350.22251362  .00698018  00000+0  22939-2 0  9998
2 66884  53.1549  56.2679 0010500 238.2562 121.7442 15.88232476  3000
STARLINK-35954          
1 66885U 25283H   25350.28608985 -.02214088  00000+0 -99153-2 0  9999
2 66885  53.1548  55.9531 0008327 316.9485  43.0888 15.86623204  3017
STARLINK-35900          
1 66886U 25283J   25350.15949293  .00566265  00000+0  20270-2 0  9993
2 66886  53.1550  56.5859 0002543 218.2258 141.8587 15.86849525  2992
STARLINK-35925          
1 66887U 25283K   25350.22165949  .00621681  00000+0  20945-2 0  9993
2 66887  53.1549  56.2620 0009144 237.2957 122.7187 15.87919839  3009
STARLINK-35919          
1 66888U 25283L   25350.28422079  .00751295  00000+0  24795-2 0  9992
2 66888  53.1548  55.9401 0001547  85.8415 274.2788 15.88063942  3014
STARLINK-35852          
1 66889U 25283M   25350.28417081  .00349400  00000+0  13138-2 0  9990
2 66889  53.1543  55.9395 0001995 185.1393 174.9612 15.86365499  3010
STARLINK-35885          
1 66890U 25283N   25349.90558707  .00499019  00000+0  17264-2 0  9996
2 66890  53.1551  57.8457 0002178  43.2715 316.8482 15.87705808  2954
STARLINK-35855          
1 66891U 25283P   25350.28325952  .00316391  00000+0  12242-2 0  9996
2 66891  53.1550  55.9335 0000189 274.5870  85.5134 15.85857000  3011
STARLINK-35883          
1 66892U 25283Q   25350.21978118  .00369120  00000+0  13913-2 0  9992
2 66892  53.1547  56.2482 0002222 170.4968 189.6099 15.86267436  3001
STARLINK-36033          
1 66893U 25283R   25350.21933915  .00225211  00000+0  86492-3 0  9994
2 66893  53.1548  56.2452 0002155 180.6461 179.4562 15.86247374  3007
STARLINK-35718          
1 66894U 25283S   25349.58891451 -.00494762  00000+0 -18900-2 0  9990
2 66894  53.1553  59.4259 0001496  43.2215 316.8928 15.87892721  2906
STARLINK-35971          
1 66895U 25283T   25350.21786929 -.00016343  00000+0 -62151-4 0  9990
2 66895  53.1544  56.2345 0001156 276.0883  84.0010 15.85965070  3002
STARLINK-35791          
1 66896U 25283U   25350.21830938 -.00638881  00000+0 -27171-2 0  9999
2 66896  53.1546  56.2376 0001543 312.2852  47.8042 15.86053588  3003
STARLINK-36079          
1 66897U 25283V   25350.21737761  .00578477  00000+0  20566-2 0  9993
2 66897  53.1545  56.2318 0004833 212.6630 147.4097 15.86956658  3008
STARLINK-36065          
1 66898U 25283W   25350.34294596 -.00360277  00000+0 -15029-2 0  9999
2 66898  53.1541  55.5915 0002932 349.8156  10.2809 15.85783112  3026
STARLINK-36064          
1 66899U 25283X   25350.34247681 -.00393439  00000+0 -16501-2 0  9995
2 66899  53.1541  55.5886 0002964 340.0075  20.0833 15.85752214  3027
STARLINK-36074          
1 66900U 25283Y   25349.90071478  .00581649  00000+0  19410-2 0  9999
2 66900  53.1545  57.8112 0000878  52.2538 307.8567 15.88236866  2953
STARLINK-36043          
1 66901U 25283Z   25350.34100483 -.02528635  00000+0 -11425-1 0  9996
2 66901  53.1547  55.5785 0011652 310.9760  49.0256 15.86245942  3022
STARLINK-35983          
1 66902U 25283AA  25350.21451739 -.01383847  00000+0 -62121-2 0  9999
2 66902  53.1543  56.2118 0004080 285.3678  74.6896 15.86199889  3007
STARLINK-36077          
1 66903U 25283AB  25350.21407177 -.01426879  00000+0 -64255-2 0  9990
2 66903  53.1547  56.2089 0004304 283.6545  76.4001 15.86224281  3005
STARLINK-36059          
1 66904U 25283AC  25350.34018831  .00538448  00000+0  20007-2 0  9990
2 66904  53.1541  55.5728 0003399 167.9998 192.1108 15.86148148  3024
STARLINK-36075          
1 66905U 25283AD  25350.33978415  .00503978  00000+0  18815-2 0  9997
2 66905  53.1544  55.5703 0004328 210.6645 149.4127 15.86132162  3024
1998-067XS              
1 66906U 98067XS  25349.69380656  .00020263  00000+0  35287-3 0  9993
2 66906  51.6303 127.7667 0003289 216.5725 143.5040 15.50732342  2071
1998-067XT              
1 66907U 98067XT  25349.81796831  .00050230  00000+0  82637-3 0  9992
2 66907  51.6296 127.0953 0004121 244.2963 115.7601 15.51845045  2094
1998-067XU              
1 66908U 98067XU  25349.75307051  .00049466  00000+0  81150-3 0  9996
2 66908  51.6291 127.4116 0004237 243.4196 116.6360 15.51929885  2088
SILVERSAT               
1 66909U 98067XV  25349.62370561  .00048941  00000+0  79995-3 0  9990
2 66909  51.6296 128.0480 0004116 244.8670 115.1892 15.52037636  2060
1998-067XW              
1 66910U 98067XW  25349.68641401  .00044307  00000+0  72313-3 0  9991
2 66910  51.6293 127.7170 0004767 223.5527 136.5086 15.52120253  2079
1998-067XX              
1 66911U 98067XX  25349.55639860  .00053353  00000+0  85851-3 0  9996
2 66911  51.6293 128.3487 0004472 225.8375 134.2248 15.52435494  2045
1998-067XY              
1 66912U 98067XY  25350.07729331  .00040934  00000+0  68475-3 0  9993
2 66912  51.6299 125.8265 0004258 241.2877 118.7684 15.51468873  2125
2025-284A               
1 66913U 25284A   25350.35348976  .00007134  00000+0  36406-3 0  9992
2 66913  80.4051 125.1874 0020282 163.0445 197.1464 15.16427692  1679
2025-284B               
1 66914U 25284B   25350.28554881  .00008068  00000+0  38445-3 0  9991
2 66914  80.4045 125.2713 0008179 234.9626 125.0834 15.18985981  1668
HULIANWANG DIGUI-105    
1 66915U 25285A   25350.33343773  .00000160  00000+0  19681-3 0  9991
2 66915  50.0044 102.6383 0007955 294.7419  65.2657 14.03716682  1412
HULIANWANG DIGUI-106    
1 66916U 25285B   25350.33049164 -.00000166  00000+0 -93439-5 0  9992
2 66916  50.0054 102.6239 0006769 287.7207  72.2958 14.03701369  1411
HULIANWANG DIGUI-107    
1 66917U 25285C   25350.32853520  .00000110  00000+0  16407-3 0  9996
2 66917  50.0019 102.6082 0007419 296.3976  63.6167 14.04225605  1412
HULIANWANG DIGUI-108    
1 66918U 25285D   25350.68353765  .00000006  00000+0  99454-4 0  9990
2 66918  50.0051 101.1567 0006595 292.7847  67.2360 14.03600554  1461
HULIANWANG DIGUI-109    
1 66919U 25285E   25350.32680909 -.00000166  00000+0 -90469-5 0  9992
2 66919  50.0084 102.6015 0007323 297.9627  62.0536 14.04707813  1415
HULIANWANG DIGUI-110    
1 66920U 25285F   25350.68169429  .00000001  00000+0  95531-4 0  9992
2 66920  50.0111 101.1564 0005566 301.4697  58.5663 14.04067368  1466
HULIANWANG DIGUI-111    
1 66921U 25285G   25350.68099251 -.00000165  00000+0 -81024-5 0  9994
2 66921  50.0126 101.1554 0006674 307.6812  52.3487 14.04579189  1465
HULIANWANG DIGUI-112    
1 66922U 25285H   25350.68011611 -.00000136  00000+0  96956-5 0  9996
2 66922  50.0091 101.1451 0006544 315.7164  44.3217 14.04784970  1467
HULIANWANG DIGUI-113    
1 66923U 25285J   25350.32390789  .00000015  00000+0  10158-3 0  9997
2 66923  50.0452 102.6217 0010803 302.0401  57.9455 14.05762991  1410
CZ-8A R/B               
1 66924U 25285K   25350.01441446 -.00000019  00000+0  52292-4 0  9992
2 66924  50.0070 102.2151 0119297 118.2843 243.0172 14.30503172  1397
STARLINK-35945          
1 66925U 25286A   25350.25003472 -.01229232  00000+0 -47545-2 0  9998
2 66925  53.1570  32.8592 0000727  99.3945 354.5958 15.88902262  2559
STARLINK-35942          
1 66926U 25286B   25350.25003472 -.01244134  00000+0 -47989-2 0  9999
2 66926  53.1569  32.8501 0000703  92.4402   5.8180 15.88986430  2556
STARLINK-35943          
1 66927U 25286C   25350.25003472 -.01247013  00000+0 -48012-2 0  9997
2 66927  53.1569  32.8465 0000799  83.9161  16.2227 15.89027035  2554
STARLINK-35944          
1 66928U 25286D   25350.25003472 -.01240359  00000+0 -47918-2 0  9998
2 66928  53.1570  32.8542 0000809  88.1434   8.1889 15.88947040  2555
STARLINK-36169          
1 66929U 25286E   25350.25003472 -.01257653  00000+0 -48362-2 0  9998
2 66929  53.1567  32.8419 0000816  85.1485  17.0456 15.89072404  2559
STARLINK-36206          
1 66930U 25286F   25350.25003472 -.01255301  00000+0 -48169-2 0  9993
2 66930  53.1567  32.8380 0000803  90.6406  13.3885 15.89109442  2556
STARLINK-36130          
1 66931U 25286G   25350.25003472 -.01266982  00000+0 -48560-2 0  9996
2 66931  53.1568  32.8337 0000799  81.5949  24.5473 15.89155879  2557
STARLINK-36177          
1 66932U 25286H   25350.25003472 -.01270981  00000+0 -48631-2 0  9990
2 66932  53.1568  32.8294 0000846  83.7458  24.4569 15.89196425  2559
STARLINK-36157          
1 66933U 25286J   25350.25003472 -.01273850  00000+0 -48654-2 0  9994
2 66933  53.1568  32.8252 0000846  84.4668  25.7603 15.89237447  2558
STARLINK-36153          
1 66934U 25286K   25350.25003472 -.01280960  00000+0 -48849-2 0  9991
2 66934  53.1566  32.8206 0000813  80.0022  32.2664 15.89282361  2551
STARLINK-36127          
1 66935U 25286L   25350.25003472 -.01287846  00000+0 -49041-2 0  9997
2 66935  53.1566  32.8161 0000807  91.1032  23.4759 15.89324320  2558
STARLINK-36160          
1 66936U 25286M   25350.25003472 -.01288548  00000+0 -48969-2 0  9996
2 66936  53.1567  32.8123 0000785  96.2895  20.1975 15.89365391  2553
STARLINK-36165          
1 66937U 25286N   25350.25003472 -.01295683  00000+0 -49167-2 0  9996
2 66937  53.1566  32.8078 0000872  83.1397  35.3008 15.89408068  2555
STARLINK-36155          
1 66938U 25286P   25350.25003472 -.01300409  00000+0 -49263-2 0  9997
2 66938  53.1563  32.8036 0000800  94.6052  25.7982 15.89451170  2559
STARLINK-36154          
1 66939U 25286Q   25350.25003472 -.01312940  00000+0 -49578-2 0  9990
2 66939  53.1563  32.7947 0000882  90.8065  33.8473 15.89538123  2551
